{"type": "FeatureCollection", "features": [ {"type": "Feature", "properties": {"norad_id": 67000, "name": "2025-292H", "group": "last-30-days", "lat": -6.792356724370379, "lon": -107.54768518908321, "alt_km": 547.4477202307535, "timestamp": "2025-12-26T22:28:04.500349+00:00", "meta": {"OBJECT_NAME": "2025-292H", "OBJECT_ID": "2025-292H", "EPOCH": "2025-12-26T18:26:54.740832", "MEAN_MOTION": 15.05072531, "ECCENTRICITY": 0.0014921, "INCLINATION": 97.6551, "RA_OF_ASC_NODE": 73.2042, "ARG_OF_PERICENTER": 228.9792, "MEAN_ANOMALY": 131.0145, "EPHEMERIS_TYPE": 0, "CLASSIFICATION_TYPE": "U", "NORAD_CAT_ID": 67000, "ELEMENT_SET_NO": 999, "REV_AT_EPOCH": 237, "BSTAR": 0.00055673, "MEAN_MOTION_DOT": 7.876e-05, "MEAN_MOTION_DDOT": 0}, "tle": {"line1": "1 67000U 25292H   25360.76868913  .00007876  00000+0  55673-3 0  9993", "line2": "2 67000  97.6551  73.2042 0014921 228.9792 131.0145 15.05072531  2378"}}, "geometry": {"type": "Point", "coordinates": [-107.54768518908321, -6.792356724370379]}}, {"type": "Feature", "properties": {"norad_id": 67001, "name": "2025-292J", "group": "last-30-days", "lat": 28.973548638751147, "lon": -102.38001984878181, "alt_km": 547.7743136537129, "timestamp": "2025-12-26T22:28:04.500359+00:00", "meta": {"OBJECT_NAME": "2025-292J", "OBJECT_ID": "2025-292J", "EPOCH": "2025-12-26T15:24:51.358176", "MEAN_MOTION": 15.04450952, "ECCENTRICITY": 0.0015175, "INCLINATION": 97.6525, "RA_OF_ASC_NODE": 73.0595, "ARG_OF_PERICENTER": 218.7742, "MEAN_ANOMALY": 141.2396, "EPHEMERIS_TYPE": 0, "CLASSIFICATION_TYPE": "U", "NORAD_CAT_ID": 67001, "ELEMENT_SET_NO": 999, "REV_AT_EPOCH": 248, "BSTAR": 0.00042741, "MEAN_MOTION_DOT": 5.931e-05, "MEAN_MOTION_DDOT": 0}, "tle": {"line1": "1 67001U 25292J   25360.64226109  .00005931  00000+0  42741-3 0  9998", "line2": "2 67001  97.6525  73.0595 0015175 218.7742 141.2396 15.04450952  2484"}}, "geometry": {"type": "Point", "coordinates": [-102.38001984878181, 28.973548638751147]}}, {"type": "Feature", "properties": {"norad_id": 67002, "name": "ZK-1A R/B", "group": "last-30-days", "lat": 46.433902472980805, "lon": 66.69590440529613, "alt_km": 391.96049020814553, "timestamp": "2025-12-26T22:28:04.500372+00:00", "meta": {"OBJECT_NAME": "ZK-1A R/B", "OBJECT_ID": "2025-292K", "EPOCH": "2025-12-26T17:38:56.006016", "MEAN_MOTION": 15.59077272, "ECCENTRICITY": 0.020399, "INCLINATION": 97.7195, "RA_OF_ASC_NODE": 74.677, "ARG_OF_PERICENTER": 314.2278, "MEAN_ANOMALY": 44.238, "EPHEMERIS_TYPE": 0, "CLASSIFICATION_TYPE": "U", "NORAD_CAT_ID": 67002, "ELEMENT_SET_NO": 999, "REV_AT_EPOCH": 257, "BSTAR": 0.00073378, "MEAN_MOTION_DOT": 0.00160099, "MEAN_MOTION_DDOT": 9.1159e-06}, "tle": {"line1": "1 67002U 25292K   25360.73537044  .00160099  91159-5  73378-3 0  9990", "line2": "2 67002  97.7195  74.6770 0203990 314.2278  44.2380 15.59077272  2576"}}, "geometry": {"type": "Point", "coordinates": [66.69590440529613, 46.433902472980805]}}, {"type": "Feature", "properties": {"norad_id": 67003, "name": "STARLINK-35660", "group": "last-30-days", "lat": 40.25045912388286, "lon": 84.8574953299991, "alt_km": 351.91514748155714, "timestamp": "2025-12-26T22:28:04.500383+00:00", "meta": {"OBJECT_NAME": "STARLINK-35660", "OBJECT_ID": "2025-293A", "EPOCH": "2025-12-26T18:00:02.998944", "MEAN_MOTION": 15.7228754, "ECCENTRICITY": 0.0003385, "INCLINATION": 69.9969, "RA_OF_ASC_NODE": 283.3453, "ARG_OF_PERICENTER": 262.6798, "MEAN_ANOMALY": 260.8386, "EPHEMERIS_TYPE": 0, "CLASSIFICATION_TYPE": "U", "NORAD_CAT_ID": 67003, "ELEMENT_SET_NO": 999, "REV_AT_EPOCH": 242, "BSTAR": -0.013752, "MEAN_MOTION_DOT": -0.01623165, "MEAN_MOTION_DDOT": 0}, "tle": {"line1": "1 67003U 25293A   25360.75003471 -.01623165  00000+0 -13752-1 0  9994", "line2": "2 67003  69.9969 283.3453 0003385 262.6798 260.8386 15.72287540  2425"}}, "geometry": {"type": "Point", "coordinates": [84.8574953299991, 40.25045912388286]}}, {"type": "Feature", "properties": {"norad_id": 67004, "name": "STARLINK-35913", "group": "last-30-days", "lat": 38.35254596369997, "lon": 86.06509618624067, "alt_km": 352.17121360481815, "timestamp": "2025-12-26T22:28:04.500395+00:00", "meta": {"OBJECT_NAME": "STARLINK-35913", "OBJECT_ID": "2025-293B", "EPOCH": "2025-12-26T18:00:02.998944", "MEAN_MOTION": 15.72276124, "ECCENTRICITY": 0.0003372, "INCLINATION": 69.9969, "RA_OF_ASC_NODE": 283.3428, "ARG_OF_PERICENTER": 262.67, "MEAN_ANOMALY": 262.9698, "EPHEMERIS_TYPE": 0, "CLASSIFICATION_TYPE": "U", "NORAD_CAT_ID": 67004, "ELEMENT_SET_NO": 999, "REV_AT_EPOCH": 242, "BSTAR": -0.013748, "MEAN_MOTION_DOT": -0.0162203, "MEAN_MOTION_DDOT": 0}, "tle": {"line1": "1 67004U 25293B   25360.75003471 -.01622030  00000+0 -13748-1 0  9990", "line2": "2 67004  69.9969 283.3428 0003372 262.6700 262.9698 15.72276124  2422"}}, "geometry": {"type": "Point", "coordinates": [86.06509618624067, 38.35254596369997]}}, {"type": "Feature", "properties": {"norad_id": 67005, "name": "STARLINK-36148", "group": "last-30-days", "lat": 36.380680060841556, "lon": 87.24783534615291, "alt_km": 352.5513506098514, "timestamp": "2025-12-26T22:28:04.500406+00:00", "meta": {"OBJECT_NAME": "STARLINK-36148", "OBJECT_ID": "2025-293C", "EPOCH": "2025-12-26T18:00:02.998944", "MEAN_MOTION": 15.7225899, "ECCENTRICITY": 0.0003509, "INCLINATION": 69.9973, "RA_OF_ASC_NODE": 283.3408, "ARG_OF_PERICENTER": 263.9208, "MEAN_ANOMALY": 263.9137, "EPHEMERIS_TYPE": 0, "CLASSIFICATION_TYPE": "U", "NORAD_CAT_ID": 67005, "ELEMENT_SET_NO": 999, "REV_AT_EPOCH": 242, "BSTAR": -0.013727, "MEAN_MOTION_DOT": -0.01618811, "MEAN_MOTION_DDOT": 0}, "tle": {"line1": "1 67005U 25293C   25360.75003471 -.01618811  00000+0 -13727-1 0  9990", "line2": "2 67005  69.9973 283.3408 0003509 263.9208 263.9137 15.72258990  2425"}}, "geometry": {"type": "Point", "coordinates": [87.24783534615291, 36.380680060841556]}}, {"type": "Feature", "properties": {"norad_id": 67006, "name": "STARLINK-36156", "group": "last-30-days", "lat": 32.0145936151246, "lon": 89.64432833398604, "alt_km": 353.2449177895787, "timestamp": "2025-12-26T22:28:04.500416+00:00", "meta": {"OBJECT_NAME": "STARLINK-36156", "OBJECT_ID": "2025-293D", "EPOCH": "2025-12-26T18:00:02.998944", "MEAN_MOTION": 15.72214582, "ECCENTRICITY": 0.0003521, "INCLINATION": 69.997, "RA_OF_ASC_NODE": 283.3345, "ARG_OF_PERICENTER": 264.4314, "MEAN_ANOMALY": 268.2257, "EPHEMERIS_TYPE": 0, "CLASSIFICATION_TYPE": "U", "NORAD_CAT_ID": 67006, "ELEMENT_SET_NO": 999, "REV_AT_EPOCH": 242, "BSTAR": -0.013812, "MEAN_MOTION_DOT": -0.01625061, "MEAN_MOTION_DDOT": 0}, "tle": {"line1": "1 67006U 25293D   25360.75003471 -.01625061  00000+0 -13812-1 0  9991", "line2": "2 67006  69.9970 283.3345 0003521 264.4314 268.2257 15.72214582  2421"}}, "geometry": {"type": "Point", "coordinates": [89.64432833398604, 32.0145936151246]}}, {"type": "Feature", "properties": {"norad_id": 67007, "name": "STARLINK-36123", "group": "last-30-days", "lat": 34.082595841027896, "lon": 88.54258208585836, "alt_km": 352.8566867559548, "timestamp": "2025-12-26T22:28:04.500430+00:00", "meta": {"OBJECT_NAME": "STARLINK-36123", "OBJECT_ID": "2025-293E", "EPOCH": "2025-12-26T18:00:02.998944", "MEAN_MOTION": 15.7223227, "ECCENTRICITY": 0.0003499, "INCLINATION": 69.997, "RA_OF_ASC_NODE": 283.3368, "ARG_OF_PERICENTER": 262.3855, "MEAN_ANOMALY": 267.9967, "EPHEMERIS_TYPE": 0, "CLASSIFICATION_TYPE": "U", "NORAD_CAT_ID": 67007, "ELEMENT_SET_NO": 999, "REV_AT_EPOCH": 242, "BSTAR": -0.013794, "MEAN_MOTION_DOT": -0.01624214, "MEAN_MOTION_DDOT": 0}, "tle": {"line1": "1 67007U 25293E   25360.75003471 -.01624214  00000+0 -13794-1 0  9990", "line2": "2 67007  69.9970 283.3368 0003499 262.3855 267.9967 15.72232270  2426"}}, "geometry": {"type": "Point", "coordinates": [88.54258208585836, 34.082595841027896]}}, {"type": "Feature", "properties": {"norad_id": 67008, "name": "STARLINK-36163", "group": "last-30-days", "lat": 29.57117808214084, "lon": 90.87764445966121, "alt_km": 353.61107417388575, "timestamp": "2025-12-26T22:28:04.500441+00:00", "meta": {"OBJECT_NAME": "STARLINK-36163", "OBJECT_ID": "2025-293F", "EPOCH": "2025-12-26T18:00:02.998944", "MEAN_MOTION": 15.721738, "ECCENTRICITY": 0.0003458, "INCLINATION": 69.997, "RA_OF_ASC_NODE": 283.3316, "ARG_OF_PERICENTER": 263.633, "MEAN_ANOMALY": 271.7124, "EPHEMERIS_TYPE": 0, "CLASSIFICATION_TYPE": "U", "NORAD_CAT_ID": 67008, "ELEMENT_SET_NO": 999, "REV_AT_EPOCH": 242, "BSTAR": -0.013819, "MEAN_MOTION_DOT": -0.01623183, "MEAN_MOTION_DDOT": 0}, "tle": {"line1": "1 67008U 25293F   25360.75003471 -.01623183  00000+0 -13819-1 0  9993", "line2": "2 67008  69.9970 283.3316 0003458 263.6330 271.7124 15.72173800  2428"}}, "geometry": {"type": "Point", "coordinates": [90.87764445966121, 29.57117808214084]}}, {"type": "Feature", "properties": {"norad_id": 67009, "name": "STARLINK-36118", "group": "last-30-days", "lat": 27.394959741088776, "lon": 91.92200662438395, "alt_km": 353.9272425465597, "timestamp": "2025-12-26T22:28:04.500451+00:00", "meta": {"OBJECT_NAME": "STARLINK-36118", "OBJECT_ID": "2025-293G", "EPOCH": "2025-12-26T18:00:02.998944", "MEAN_MOTION": 15.72153375, "ECCENTRICITY": 0.0003345, "INCLINATION": 69.9974, "RA_OF_ASC_NODE": 283.3286, "ARG_OF_PERICENTER": 263.948, "MEAN_ANOMALY": 273.7715, "EPHEMERIS_TYPE": 0, "CLASSIFICATION_TYPE": "U", "NORAD_CAT_ID": 67009, "ELEMENT_SET_NO": 999, "REV_AT_EPOCH": 236, "BSTAR": -0.01389, "MEAN_MOTION_DOT": -0.016292, "MEAN_MOTION_DDOT": 0}, "tle": {"line1": "1 67009U 25293G   25360.75003471 -.01629200  00000+0 -13890-1 0  9999", "line2": "2 67009  69.9974 283.3286 0003345 263.9480 273.7715 15.72153375  2369"}}, "geometry": {"type": "Point", "coordinates": [91.92200662438395, 27.394959741088776]}}]}